#cP2022  3  1  0  0  0.00000000     576 d+D   IGb14 EXT AIUB
## 2199 172800.00000000   300.00000000 59639 0.0000000000000
+   76   G02G03G05G06G07G08G09G10G11G12G13G14G15G16G17G18G19
+        G20G21G22G23G24G25G26G27G28G29G30G31G32R01R02R03R04
+        R05R07R08R09R11R12R13R14R15R17R18R19R20R21R22R24E01
+        E02E03E04E05E07E08E09E10E11E12E13E14E15E18E19E21E24
+        E25E26E27E30E31E33E34E36  0  0  0  0  0  0  0  0  0
++         7  6  7  6  7  6  6  6  8  7  7  7  7  7  7  8  7
++         7  7  6  7  7  5  7  6  7  7  7  7  6  9  7  8  8
++         8  8  7  7  7  7  7  7  6  8  7  7  9  8  8  8  6
++         6  6  7  7  7  7  6  8  7  7  6  6  6  6  6  5 12
++         6  7  7  6  7  7  6  7  0  0  0  0  0  0  0  0  0
%c M  cc GPS ccc cccc cccc cccc cccc ccccc ccccc ccccc ccccc
%c cc cc ccc ccc cccc cccc cccc cccc ccccc ccccc ccccc ccccc
%f  1.2500000  1.025000000  0.00000000000  0.000000000000000
%f  0.0000000  0.000000000  0.00000000000  0.000000000000000
%i    0    0    0    0      0      0      0      0         0
%i    0    0    0    0      0      0      0      0         0
/* Center for Orbit Determination in Europe (CODE)          
/* Ultra-rapid GRE orbits starting year-day 22060 00 hour   
/* Observed/predicted: 24/24 hours (data used up to 060X)   
/* PCV:IGS14      OL/AL:FES2014b NONE     YN ORB:CoN CLK:BRD
*  2022  3  1 22  0  0.00000000
PG02 -14184.684539 -15591.595595 -15418.395454   -651.682727
PG03  22697.343773 -12292.223501   5908.969429   -144.209713
PG05 -19392.623348   -615.177704 -18365.198901    -73.173549
PG06  -5490.816395 -25717.435589  -3352.491525    217.385590
PG07   6524.879644 -21822.193525 -12855.559117    313.596800
PG08  25429.129608   5157.942234   6462.234562    -58.144797
PG09  11974.740483 -11229.561852 -20953.345783   -351.913273
PG10  -4902.906547  19090.539422  17804.551786   -334.460172
PG11 -12508.901239 -17051.524046 -16081.555961    -74.115582
PG12 -23522.213617   8596.264391   8374.173378   -178.485177
PG13 -23054.024775 -13366.314532    106.662902    269.826352
PG14   6461.657291 -19314.314699  17004.413074    -89.483801
PG15 -25762.689737  -2178.852861   6363.963066    -80.042985
PG16  16778.950810   5766.733468 -20175.759123   -475.625042
PG17  -3803.988029 -17092.097470  20390.542438    581.669621
PG18  -6676.744310  21990.891830 -13227.560712    229.405239
PG19 -11850.772450 -18145.752244  15219.912260    125.450082
PG20 -12835.519910  -9095.748819 -21384.921617    516.482855
PG21  16228.529628   4321.944405  21374.320037    158.809125
PG22  14368.246496  18116.740432  13633.910484    221.049879
PG23 -14902.795318  20011.649230   8955.249480     -3.141817
PG24 -15437.299320   2592.500333  21166.901198    271.458644
PG25 -19369.712268  17729.377974  -3077.385060    292.468285
PG26   6625.921894  14719.573100 -21138.135126    187.358353
PG27  23087.464256  12868.194683  -4475.515848    138.932712
PG28  -1586.153735 -16367.799577  21421.496700    389.731955
PG29 -14555.886558   8146.158440 -20730.858730   -486.265402
PG30    999.192874 -25867.710502  -5246.513065   -516.321044
PG31   6941.044463  24675.498857  -6067.106637   -167.010352
PG32   8924.580069  17414.140708  18177.960934    -76.738186
PR01  -6151.368976 -10324.604756 -22496.662481      7.145107
PR02 -22911.804666  -3682.228204 -10472.330450    511.188413
PR03 -24062.995950   4778.628801   6927.588647     52.369697
PR04 -11818.335970  10151.845155  20224.062252    129.989311
PR05   6953.080954  10091.871465  22388.492683     88.614619
PR07  23884.205596  -4999.277073  -7474.257268     32.185469
PR08  11740.461285 -10268.864881 -20133.443369    -63.790240
PR09  10522.159482   4178.719501 -22844.283094     42.117820
PR11  11142.668107 -22936.891546   -387.239392     44.581604
PR12    596.061531 -19333.489002  16660.884505     17.311501
PR13  -9725.065000  -5209.623335  22976.567869    -18.922115
PR14 -14984.803594  13285.986242  15810.257652     74.912816
PR15 -11113.693265  22954.923474   -368.022365     97.853500
PR17 -12023.185413    280.760643 -22488.991861    505.986797
PR18  -1130.113333  15162.199512 -20483.272406    108.929292
PR19   9019.783029  22209.185848  -8725.491730   -179.992221
PR20  15893.455021  16373.075296  11462.708570    -65.879919
PR21  11195.940672  -1631.328801  22861.736778   -281.936228
PR22    635.808959 -15647.718539  20088.249102   -167.883503
PR24 -16467.761520 -15386.978177 -11933.964641     82.443865
PE01  23794.855151  -9215.727544 -15017.385241   -588.630287
PE02 -23797.975106   9341.104727  14890.766087    283.491274
PE03 -27923.724930   -291.000124   9829.786028   -532.948102
PE04  14670.432596 -12476.724571 -22472.973794   -975.388100
PE05 -25008.194989 -13135.446097  -8838.280620   -204.370431
PE07   7579.591243  18163.955067  22113.445756   -644.069655
PE08 -14192.964082  12612.316681  22712.533442   -488.006813
PE09  -7955.066489 -18008.432906 -22103.509382   5343.148640
PE10    931.688577 -26784.172049  12561.366747   -498.098229
PE11  -6071.221380 -28828.226438   2750.776198   4335.175560
PE12   7692.257620 -20607.134865  19799.444751   4734.685880
PE13   5727.559680  28845.053577  -3417.404166    426.945239
PE14  20026.257864  15784.043003  -6526.216733  -1763.246370
PE15  -7648.402067  20519.617781 -19911.168257    760.329987
PE18 -29048.221943  -7975.282154  -7317.395729  -1734.073260
PE19  28513.378722   2146.472067  -7659.443101   -607.992748
PE21  15138.276352   8076.654988 -24127.121905   -720.063709
PE24   3998.769751 -22273.705451  19078.610935  -1417.761910
PE25 -14927.108477  -8323.682198  24165.579080   -565.325550
PE26  15978.278929  19359.918247  15697.100939   -863.161391
PE27  -2677.334899  21760.029471 -19881.653952   -243.554047
PE30 -19469.357335  22084.897453  -2959.896141   -314.270895
PE31  18784.028927 -22537.872828   3969.819538   -492.907799
PE33  16469.839151   -108.671181  24603.884536   -458.964234
PE34 -16418.803053    390.265410 -24627.279526   -504.487725
PE36 -15644.588134 -20170.617233 -14966.566038   -339.317559
EOF
